{
    "links": {
        "self": "http://www.neowsapp.com/rest/v1/neo/3773655?api_key=iIulBulltgU6a56xZRHN4H3l9WmuAYTsLGpBGhQ2"
    },
    "id": "3773655",
    "neo_reference_id": "3773655",
    "name": "(2017 FS128)",
    "designation": "2017 FS128",
    "nasa_jpl_url": "http://ssd.jpl.nasa.gov/sbdb.cgi?sstr=3773655",
    "absolute_magnitude_h": 24.2,
    "estimated_diameter": {
        "kilometers": {
            "estimated_diameter_min": 0.0384197891,
            "estimated_diameter_max": 0.0859092601
        },
        "meters": {
            "estimated_diameter_min": 38.4197891064,
            "estimated_diameter_max": 85.9092601232
        },
        "miles": {
            "estimated_diameter_min": 0.0238729428,
            "estimated_diameter_max": 0.0533815229
        },
        "feet": {
            "estimated_diameter_min": 126.0491808919,
            "estimated_diameter_max": 281.8545369825
        }
    },
    "is_potentially_hazardous_asteroid": false,
    "close_approach_data": [
        {
            "close_approach_date": "1947-03-23",
            "close_approach_date_full": "1947-Mar-23 10:16",
            "epoch_date_close_approach": -718811040000,
            "relative_velocity": {
                "kilometers_per_second": "34.176988433",
                "kilometers_per_hour": "123037.1583589267",
                "miles_per_hour": "76450.5054258564"
            },
            "miss_distance": {
                "astronomical": "0.3041294261",
                "lunar": "118.3063467529",
                "kilometers": "45497114.348882407",
                "miles": "28270595.9314429366"
            },
            "orbiting_body": "Earth"
        },
        {
            "close_approach_date": "2017-04-09",
            "close_approach_date_full": "2017-Apr-09 01:44",
            "epoch_date_close_approach": 1491702240000,
            "relative_velocity": {
                "kilometers_per_second": "22.9088700289",
                "kilometers_per_hour": "82471.9321040425",
                "miles_per_hour": "51244.851367648"
            },
            "miss_distance": {
                "astronomical": "0.0671495823",
                "lunar": "26.1211875147",
                "kilometers": "10045434.483469701",
                "miles": "6241943.5452598338"
            },
            "orbiting_body": "Earth"
        },
        {
            "close_approach_date": "2017-05-31",
            "close_approach_date_full": "2017-May-31 08:46",
            "epoch_date_close_approach": 1496220360000,
            "relative_velocity": {
                "kilometers_per_second": "27.3741884676",
                "kilometers_per_hour": "98547.0784833589",
                "miles_per_hour": "61233.3221831738"
            },
            "miss_distance": {
                "astronomical": "0.0540329112",
                "lunar": "21.0188024568",
                "kilometers": "8083208.425419144",
                "miles": "5022672.8111224272"
            },
            "orbiting_body": "Merc"
        },
        {
            "close_approach_date": "2081-10-16",
            "close_approach_date_full": "2081-Oct-16 09:31",
            "epoch_date_close_approach": 3527832660000,
            "relative_velocity": {
                "kilometers_per_second": "17.3033399891",
                "kilometers_per_hour": "62292.0239606462",
                "miles_per_hour": "38705.8412215471"
            },
            "miss_distance": {
                "astronomical": "0.0293383825",
                "lunar": "11.4126307925",
                "kilometers": "4388959.531245275",
                "miles": "2727172.992023795"
            },
            "orbiting_body": "Mars"
        },
        {
            "close_approach_date": "2137-04-05",
            "close_approach_date_full": "2137-Apr-05 19:58",
            "epoch_date_close_approach": 5278247880000,
            "relative_velocity": {
                "kilometers_per_second": "26.3092126567",
                "kilometers_per_hour": "94713.1655640019",
                "miles_per_hour": "58851.0777916989"
            },
            "miss_distance": {
                "astronomical": "0.0500293107",
                "lunar": "19.4614018623",
                "kilometers": "7484278.318288209",
                "miles": "4650514.8997429242"
            },
            "orbiting_body": "Earth"
        }
    ],
    "orbital_data": {
        "orbit_id": "2",
        "orbit_determination_date": "2017-04-06 08:18:52",
        "first_observation_date": "2017-03-20",
        "last_observation_date": "2017-04-01",
        "data_arc_in_days": 12,
        "observations_used": 28,
        "orbit_uncertainty": "8",
        "minimum_orbit_intersection": ".0153934",
        "jupiter_tisserand_invariant": "4.188",
        "epoch_osculation": "2457841.5",
        "eccentricity": ".7328670350911365",
        "semi_major_axis": "1.504809726590129",
        "inclination": "3.657727213171925",
        "ascending_node_longitude": "30.23690467184479",
        "orbital_period": "674.2497768642826",
        "perihelion_distance": ".4019842838877175",
        "perihelion_argument": "280.49161909",
        "aphelion_distance": "2.607635169292541",
        "perihelion_time": "2457901.149801824580",
        "mean_anomaly": "328.1513744702785",
        "mean_motion": ".5339267617918146",
        "equinox": "J2000",
        "orbit_class": {
            "orbit_class_type": "APO",
            "orbit_class_description": "Near-Earth asteroid orbits which cross the Earth’s orbit similar to that of 1862 Apollo",
            "orbit_class_range": "a (semi-major axis) > 1.0 AU; q (perihelion) < 1.017 AU"
        }
    },
    "is_sentry_object": false
}